SCD 1                   
1 22490U 93009B   26160.44189471  .00000366  00000+0  49422-4 0  9990
2 22490  24.9690 255.4014 0042142  56.2102  38.1507 14.46116195759990
TECHSAT 1B (GO-32)      
1 25397U 98043D   26160.68887190  .00000062  00000+0  47069-4 0  9999
2 25397  99.0066 153.2585 0000624 182.3530 177.7645 14.24426956450268
SCD 2                   
1 25504U 98060A   26160.62616898  .00000381  00000+0  55554-4 0  9999
2 25504  24.9941 118.7859 0016899  44.0362 302.9047 14.45522864459226
DLR-TUBSAT              
1 25757U 99029B   26160.78439303  .00000089  00000+0  33789-4 0  9997
2 25757  98.6694 156.0448 0014519  17.4710 342.6981 14.52424950432174
TERRA                   
1 25994U 99068A   26160.83634642  .00000339  00000+0  77920-4 0  9995
2 25994  97.9459 210.6738 0001032 222.6063 248.3946 14.61097233408530
MAROC-TUBSAT            
1 27004U 01056D   26160.48010358 -.00000015  00000+0  35459-4 0  9995
2 27004  99.8079 337.1946 0020084 160.6310 254.5212 13.70262110225138
AQUA                    
1 27424U 02022A   26160.87314084  .00000703  00000+0  14963-3 0  9990
2 27424  98.4273 130.0100 0001396  53.5200  30.8393 14.62147028282208
SHIYAN-1 (SY-1)         
1 28220U 04012A   26160.68046400  .00012438  00000+0  38554-3 0  9999
2 28220  97.8690 238.2622 0006218  56.8905 303.2932 15.33568832209940
AURA                    
1 28376U 04026A   26160.72811172  .00000731  00000+0  15775-3 0  9990
2 28376  98.3414 117.1199 0001307  71.5340 288.6002 14.61317877165123
IRS-P5 (CARTOSAT-1)     
1 28649U 05017A   26160.62920506  .00001287  00000+0  13543-3 0  9993
2 28649  97.5309 184.0367 0002637  89.9684 270.1837 14.91029656142698
SINAH 1                 
1 28893U 05043D   26160.81019047  .00000281  00000+0  62742-4 0  9992
2 28893  98.2851 295.0892 0013276 302.1220  57.8694 14.64152790 99443
RESURS-DK 1             
1 29228U 06021A   26160.69782703  .00002172  00000+0  12816-3 0  9991
2 29228  69.9339 358.9397 0006574 297.6038  62.4460 15.13183825101444
ARIRANG-2 (KOMPSAT-2)   
1 29268U 06031A   26160.92389347  .00000427  00000+0  88618-4 0  9994
2 29268  97.8314 345.7224 0015894  95.3399  14.3471 14.64656293 60410
LAPAN-TUBSAT            
1 29709U 07001A   26160.91448424  .00000311  00000+0  42253-4 0  9990
2 29709  98.1347 159.9748 0011295 203.7538 156.3156 14.85943561 50075
HAIYANG-1B              
1 31113U 07010A   26160.66334119  .00000086  00000+0  48329-4 0  9998
2 31113  98.3490 142.8004 0012587 219.7648 140.2614 14.31025007999551
COSMO-SKYMED 1          
1 31598U 07023A   26160.91651263  .00001942  00000+0  17367-3 0  9998
2 31598  97.8854 352.7123 0001042  83.7321 276.4019 14.97066258 28707
TERRASAR-X              
1 31698U 07026A   26160.28753291  .00000433  00000+0  23833-4 0  9996
2 31698  97.4448 168.1064 0001684  80.8129 279.3296 15.19149435 52027
WORLDVIEW-1 (WV-1)      
1 32060U 07041A   26160.80807554  .00005889  00000+0  24466-3 0  9999
2 32060  97.3862 280.6590 0002918  41.6967 318.4492 15.24185455 41759
YAOGAN-3                
1 32289U 07055A   26160.94542025  .00001287  00000+0  13671-3 0  9995
2 32289  97.8159 190.8945 0001798  86.3926 273.7498 14.90750726  4791
COSMO-SKYMED 2          
1 32376U 07059A   26160.93740649  .00000361  00000+0  51918-4 0  9996
2 32376  97.8885 344.6407 0001409  85.5111 274.6263 14.82148953   938
RADARSAT-2              
1 32382U 07061A   26160.90078377  .00000136  00000+0  69756-4 0  9994
2 32382  98.5784 167.9372 0001314  84.7508 275.3825 14.29983763964910
CARTOSAT-2A             
1 32783U 08021A   26160.94391269  .00000232  00000+0  37942-4 0  9997
2 32783  97.7637 209.8997 0012810 130.1191 230.1145 14.79226397977735
HUANJING 1A (HJ-1A)     
1 33320U 08041A   26160.95152832  .00000477  00000+0  63311-4 0  9999
2 33320  97.6684 147.0699 0019315 157.5097 202.6969 14.83968841957335
HUANJING 1B (HJ-1B)     
1 33321U 08041B   26160.98478824  .00000654  00000+0  85363-4 0  9993
2 33321  97.6520 150.2952 0035427 205.0179 154.9321 14.83303591957342
GEOEYE 1                
1 33331U 08042A   26160.77409532  .00000394  00000+0  82949-4 0  9990
2 33331  98.1235 234.7991 0005562  87.2715 272.9124 14.64718873949060
THEOS                   
1 33396U 08049A   26160.92327809  .00000171  00000+0  10030-3 0  9995
2 33396  98.5573 218.4426 0001253  78.6724 281.4594 14.20132517916932
COSMO-SKYMED 3          
1 33412U 08054A   26160.90538311  .00002561  00000+0  17557-3 0  9996
2 33412  97.8290  19.3556 0014324 294.2972  65.6758 15.06902820955849
YAOGAN-4                
1 33446U 08061A   26160.67867853  .00000904  00000+0  11708-3 0  9992
2 33446  97.9307  94.2445 0015759  94.6091 265.6923 14.83185741944553
GOSAT (IBUKI)           
1 33492U 09002A   26160.57014052  .00001071  00000+0  19742-3 0  9995
2 33492  98.0881 271.7470 0001672  88.7128 271.4268 14.67540035930349
DEIMOS-1                
1 35681U 09041A   26160.92886623  .00000395  00000+0  65470-4 0  9998
2 35681  97.7400 318.4718 0001166 137.7557 222.3743 14.75229506905810
