OBJECT_NAME,OBJECT_ID,EPOCH,MEAN_MOTION,ECCENTRICITY,INCLINATION,RA_OF_ASC_NODE,ARG_OF_PERICENTER,MEAN_ANOMALY,EPHEMERIS_TYPE,CLASSIFICATION_TYPE,NORAD_CAT_ID,ELEMENT_SET_NO,REV_AT_EPOCH,BSTAR,MEAN_MOTION_DOT,MEAN_MOTION_DDOT
SCD 1,1993-009B,2026-06-09T10:36:19.702944,14.46116195,.00421429,24.9690,255.4014,56.2102,38.1507,0,U,22490,999,75999,.49421847E-4,.366E-5,0
TECHSAT 1B (GO-32),1998-043D,2026-06-09T16:31:58.532160,14.24426956,.00006248,99.0066,153.2585,182.3530,177.7645,0,U,25397,999,45026,.47068925E-4,.62E-6,0
SCD 2,1998-060A,2026-06-09T15:01:40.999872,14.45522864,.00168993,24.9941,118.7859,44.0362,302.9047,0,U,25504,999,45922,.55554382E-4,.381E-5,0
DLR-TUBSAT,1999-029B,2026-06-09T18:49:31.557792,14.52424950,.00145198,98.6694,156.0448,17.4710,342.6981,0,U,25757,999,43217,.33789164E-4,.89E-6,0
TERRA,1999-068A,2026-06-09T20:04:20.330688,14.61097233,.00010329,97.9459,210.6738,222.6063,248.3946,0,U,25994,999,40853,.77920197E-4,.339E-5,0
MAROC-TUBSAT,2001-056D,2026-06-09T11:31:20.949312,13.70262110,.00200846,99.8079,337.1946,160.6310,254.5212,0,U,27004,999,22513,.35459147E-4,-.15E-6,0
AQUA,2002-022A,2026-06-09T20:57:19.368576,14.62147028,.00013963,98.4273,130.0100,53.5200,30.8393,0,U,27424,999,28220,.14963171E-3,.703E-5,0
SHIYAN-1 (SY-1),2004-012A,2026-06-09T16:19:52.089600,15.33568832,.00062181,97.8690,238.2622,56.8905,303.2932,0,U,28220,999,20994,.38554379E-3,.12438E-3,0
AURA,2004-026A,2026-06-09T17:28:28.852608,14.61317877,.00013072,98.3414,117.1199,71.5340,288.6002,0,U,28376,999,16512,.15774678E-3,.731E-5,0
IRS-P5 (CARTOSAT-1),2005-017A,2026-06-09T15:06:03.317184,14.91029656,.00026372,97.5309,184.0367,89.9684,270.1837,0,U,28649,999,14269,.13542682E-3,.1287E-4,0
SINAH 1,2005-043D,2026-06-09T19:26:40.456608,14.64152790,.00132764,98.2851,295.0892,302.1220,57.8694,0,U,28893,999,9944,.62742031E-4,.281E-5,0
RESURS-DK 1,2006-021A,2026-06-09T16:44:52.255392,15.13183825,.0006574,69.9339,358.9397,297.6038,62.4460,0,U,29228,999,10144,.12816245E-3,.2172E-4,0
ARIRANG-2 (KOMPSAT-2),2006-031A,2026-06-09T22:10:24.395808,14.64656293,.0015894,97.8314,345.7224,95.3399,14.3471,0,U,29268,999,6041,.88617997E-4,.427E-5,0
LAPAN-TUBSAT,2007-001A,2026-06-09T21:56:51.438336,14.85943561,.00112959,98.1347,159.9748,203.7538,156.3156,0,U,29709,999,5007,.42253122E-4,.311E-5,0
HAIYANG-1B,2007-010A,2026-06-09T15:55:12.678816,14.31025007,.00125876,98.3490,142.8004,219.7648,140.2614,0,U,31113,999,99955,.4832929E-4,.86E-6,0
COSMO-SKYMED 1,2007-023A,2026-06-09T21:59:46.691232,14.97066258,.00010428,97.8854,352.7123,83.7321,276.4019,0,U,31598,999,2870,.17367281E-3,.1942E-4,0
TERRASAR-X,2007-026A,2026-06-09T06:54:02.843424,15.19149435,.00016846,97.4448,168.1064,80.8129,279.3296,0,U,31698,999,5202,.23832718E-4,.433E-5,0
WORLDVIEW-1 (WV-1),2007-041A,2026-06-09T19:23:37.726656,15.24185455,.00029187,97.3862,280.6590,41.6967,318.4492,0,U,32060,999,4175,.24466484E-3,.5889E-4,0
YAOGAN-3,2007-055A,2026-06-09T22:41:24.309600,14.90750726,.00017986,97.8159,190.8945,86.3926,273.7498,0,U,32289,999,479,.13670917E-3,.1287E-4,0
COSMO-SKYMED 2,2007-059A,2026-06-09T22:29:51.920736,14.82148953,.00014097,97.8885,344.6407,85.5111,274.6263,0,U,32376,999,93,.51918407E-4,.361E-5,0
RADARSAT-2,2007-061A,2026-06-09T21:37:07.717728,14.29983763,.00013147,98.5784,167.9372,84.7508,275.3825,0,U,32382,999,96491,.69755782E-4,.136E-5,0
CARTOSAT-2A,2008-021A,2026-06-09T22:39:14.056416,14.79226397,.00128107,97.7637,209.8997,130.1191,230.1145,0,U,32783,999,97773,.37941779E-4,.232E-5,0
HUANJING 1A (HJ-1A),2008-041A,2026-06-09T22:50:12.046848,14.83968841,.00193158,97.6684,147.0699,157.5097,202.6969,0,U,33320,999,95733,.6331071E-4,.477E-5,0
HUANJING 1B (HJ-1B),2008-041B,2026-06-09T23:38:05.703936,14.83303591,.00354279,97.6520,150.2952,205.0179,154.9321,0,U,33321,999,95734,.85363228E-4,.654E-5,0
GEOEYE 1,2008-042A,2026-06-09T18:34:41.835648,14.64718873,.00055621,98.1235,234.7991,87.2715,272.9124,0,U,33331,999,94906,.82948714E-4,.394E-5,0
THEOS,2008-049A,2026-06-09T22:09:31.226976,14.20132517,.00012536,98.5573,218.4426,78.6724,281.4594,0,U,33396,999,91693,.10029923E-3,.171E-5,0
COSMO-SKYMED 3,2008-054A,2026-06-09T21:43:45.100704,15.06902820,.00143244,97.8290,19.3556,294.2972,65.6758,0,U,33412,999,95584,.17556802E-3,.2561E-4,0
YAOGAN-4,2008-061A,2026-06-09T16:17:17.824992,14.83185741,.0015759,97.9307,94.2445,94.6091,265.6923,0,U,33446,999,94455,.11708441E-3,.904E-5,0
GOSAT (IBUKI),2009-002A,2026-06-09T13:41:00.140928,14.67540035,.00016725,98.0881,271.7470,88.7128,271.4268,0,U,33492,999,93034,.19742488E-3,.1071E-4,0
DEIMOS-1,2009-041A,2026-06-09T22:17:34.042272,14.75229506,.00011665,97.7400,318.4718,137.7557,222.3743,0,U,35681,999,90581,.65470384E-4,.395E-5,0
